[
    {
        "Altitude(m)": 604221.1980349079,
        "Argument of Periapsis(deg)": 0.0,
        "Eccentricity": 0.0,
        "Inclination(deg)": 60.0,
        "Latitude(deg)": 14.117209971261486,
        "Longitude(deg)": -131.6658314595293,
        "Mean Anomaly(deg)": 16.363599999999984,
        "RAAN(deg)": 320.0,
        "Satellite Name": "Test1 1409",
        "Satellite Number": 1409,
        "Semi-Major Axis(m)": 6980739.136638005,
        "Time(s)": 0
    },
    {
        "Altitude(m)": 604235.3386760897,
        "Argument of Periapsis(deg)": 0.00010418945913296404,
        "Eccentricity": 0.0,
        "Inclination(deg)": 60.0,
        "Latitude(deg)": 14.651606439053628,
        "Longitude(deg)": -131.37738397959947,
        "Mean Anomaly(deg)": 16.983706145461838,
        "RAAN(deg)": 319.9995799508602,
        "Satellite Name": "Test1 1409",
        "Satellite Number": 1409,
        "Semi-Major Axis(m)": 6980739.136638005,
        "Time(s)": 10
    }
]